IRIDIUM 921 [-]         
1 24873U 97034E   24045.35010616  .00038813  00000+0  12618-2 0  9996
2 24873  86.3889 349.0200 0006189  43.2729 316.9006 15.31721001456468
IRIDIUM 26 [-]          
1 24903U 97043A   24044.83274321  .00000994  00000+0  33437-3 0  9999
2 24903  86.3984 315.9615 0001923  83.4681 276.6735 14.36206493386486
IRIDIUM 22 [-]          
1 24907U 97043E   24045.21087163  .00000969  00000+0  33297-3 0  9998
2 24907  86.3992 318.9408 0002178  84.0035 276.1409 14.35104334386613
DUMMY MASS 1 [-]        
1 24925U 97048A   24045.36807304  .00001131  00000+0  12613-3 0  9997
2 24925  86.3382   1.1799 0009258  81.3170 278.9102 14.86047974432755
DUMMY MASS 2 [-]        
1 24926U 97048B   24045.38462186  .00001105  00000+0  12387-3 0  9994
2 24926  86.3381   2.6924 0010091  89.5013 270.7368 14.85807451432548
IRIDIUM 29 [-]          
1 24944U 97051A   24045.39232118  .00000974  00000+0  33183-3 0  9999
2 24944  86.4005 348.7930 0002409  82.0300 278.1170 14.35557356383341
IRIDIUM 33 [-]          
1 24946U 97051C   24044.88633253  .00000783  00000+0  27215-3 0  9996
2 24946  86.3919 348.2670 0006146 224.7106 135.3595 14.34259093382590
IRIDIUM 28 [-]          
1 24948U 97051E   24044.92077786  .00001123  00000+0  37628-3 0  9994
2 24948  86.4010 346.7884 0001777  89.3842 270.7559 14.36505126383589
