<?xml version="1.0" encoding="UTF-8"?>
<ndm xmlns:xsi="http://www.w3.org/2001/XMLSchema-instance" xsi:noNamespaceSchemaLocation="https://sanaregistry.org/r/ndmxml_unqualified/ndmxml-2.0.0-master-2.0.xsd">
<omm id="CCSDS_OMM_VERS" version="2.0">
<header><CREATION_DATE/><ORIGINATOR/></header><body><segment><metadata><OBJECT_NAME>IRIDIUM 921 [-]</OBJECT_NAME><OBJECT_ID>1997-034E</OBJECT_ID><CENTER_NAME>EARTH</CENTER_NAME><REF_FRAME>TEME</REF_FRAME><TIME_SYSTEM>UTC</TIME_SYSTEM><MEAN_ELEMENT_THEORY>SGP4</MEAN_ELEMENT_THEORY></metadata><data><meanElements><EPOCH>2024-02-14T08:24:09.172224</EPOCH><MEAN_MOTION>15.31721001</MEAN_MOTION><ECCENTRICITY>.0006189</ECCENTRICITY><INCLINATION>86.3889</INCLINATION><RA_OF_ASC_NODE>349.0200</RA_OF_ASC_NODE><ARG_OF_PERICENTER>43.2729</ARG_OF_PERICENTER><MEAN_ANOMALY>316.9006</MEAN_ANOMALY></meanElements><tleParameters><EPHEMERIS_TYPE>0</EPHEMERIS_TYPE><CLASSIFICATION_TYPE>U</CLASSIFICATION_TYPE><NORAD_CAT_ID>24873</NORAD_CAT_ID><ELEMENT_SET_NO>999</ELEMENT_SET_NO><REV_AT_EPOCH>45646</REV_AT_EPOCH><BSTAR>.12618E-2</BSTAR><MEAN_MOTION_DOT>.38813E-3</MEAN_MOTION_DOT><MEAN_MOTION_DDOT>0</MEAN_MOTION_DDOT></tleParameters></data></segment></body></omm>
<omm id="CCSDS_OMM_VERS" version="2.0">
<header><CREATION_DATE/><ORIGINATOR/></header><body><segment><metadata><OBJECT_NAME>IRIDIUM 26 [-]</OBJECT_NAME><OBJECT_ID>1997-043A</OBJECT_ID><CENTER_NAME>EARTH</CENTER_NAME><REF_FRAME>TEME</REF_FRAME><TIME_SYSTEM>UTC</TIME_SYSTEM><MEAN_ELEMENT_THEORY>SGP4</MEAN_ELEMENT_THEORY></metadata><data><meanElements><EPOCH>2024-02-13T19:59:09.013344</EPOCH><MEAN_MOTION>14.36206493</MEAN_MOTION><ECCENTRICITY>.0001923</ECCENTRICITY><INCLINATION>86.3984</INCLINATION><RA_OF_ASC_NODE>315.9615</RA_OF_ASC_NODE><ARG_OF_PERICENTER>83.4681</ARG_OF_PERICENTER><MEAN_ANOMALY>276.6735</MEAN_ANOMALY></meanElements><tleParameters><EPHEMERIS_TYPE>0</EPHEMERIS_TYPE><CLASSIFICATION_TYPE>U</CLASSIFICATION_TYPE><NORAD_CAT_ID>24903</NORAD_CAT_ID><ELEMENT_SET_NO>999</ELEMENT_SET_NO><REV_AT_EPOCH>38648</REV_AT_EPOCH><BSTAR>.33437E-3</BSTAR><MEAN_MOTION_DOT>.994E-5</MEAN_MOTION_DOT><MEAN_MOTION_DDOT>0</MEAN_MOTION_DDOT></tleParameters></data></segment></body></omm>
<omm id="CCSDS_OMM_VERS" version="2.0">
<header><CREATION_DATE/><ORIGINATOR/></header><body><segment><metadata><OBJECT_NAME>IRIDIUM 22 [-]</OBJECT_NAME><OBJECT_ID>1997-043E</OBJECT_ID><CENTER_NAME>EARTH</CENTER_NAME><REF_FRAME>TEME</REF_FRAME><TIME_SYSTEM>UTC</TIME_SYSTEM><MEAN_ELEMENT_THEORY>SGP4</MEAN_ELEMENT_THEORY></metadata><data><meanElements><EPOCH>2024-02-14T05:03:39.308832</EPOCH><MEAN_MOTION>14.35104334</MEAN_MOTION><ECCENTRICITY>.0002178</ECCENTRICITY><INCLINATION>86.3992</INCLINATION><RA_OF_ASC_NODE>318.9408</RA_OF_ASC_NODE><ARG_OF_PERICENTER>84.0035</ARG_OF_PERICENTER><MEAN_ANOMALY>276.1409</MEAN_ANOMALY></meanElements><tleParameters><EPHEMERIS_TYPE>0</EPHEMERIS_TYPE><CLASSIFICATION_TYPE>U</CLASSIFICATION_TYPE><NORAD_CAT_ID>24907</NORAD_CAT_ID><ELEMENT_SET_NO>999</ELEMENT_SET_NO><REV_AT_EPOCH>38661</REV_AT_EPOCH><BSTAR>.33297E-3</BSTAR><MEAN_MOTION_DOT>.969E-5</MEAN_MOTION_DOT><MEAN_MOTION_DDOT>0</MEAN_MOTION_DDOT></tleParameters></data></segment></body></omm>
<omm id="CCSDS_OMM_VERS" version="2.0">
<header><CREATION_DATE/><ORIGINATOR/></header><body><segment><metadata><OBJECT_NAME>DUMMY MASS 1 [-]</OBJECT_NAME><OBJECT_ID>1997-048A</OBJECT_ID><CENTER_NAME>EARTH</CENTER_NAME><REF_FRAME>TEME</REF_FRAME><TIME_SYSTEM>UTC</TIME_SYSTEM><MEAN_ELEMENT_THEORY>SGP4</MEAN_ELEMENT_THEORY></metadata><data><meanElements><EPOCH>2024-02-14T08:50:01.510656</EPOCH><MEAN_MOTION>14.86047974</MEAN_MOTION><ECCENTRICITY>.0009258</ECCENTRICITY><INCLINATION>86.3382</INCLINATION><RA_OF_ASC_NODE>1.1799</RA_OF_ASC_NODE><ARG_OF_PERICENTER>81.3170</ARG_OF_PERICENTER><MEAN_ANOMALY>278.9102</MEAN_ANOMALY></meanElements><tleParameters><EPHEMERIS_TYPE>0</EPHEMERIS_TYPE><CLASSIFICATION_TYPE>U</CLASSIFICATION_TYPE><NORAD_CAT_ID>24925</NORAD_CAT_ID><ELEMENT_SET_NO>999</ELEMENT_SET_NO><REV_AT_EPOCH>43275</REV_AT_EPOCH><BSTAR>.12613E-3</BSTAR><MEAN_MOTION_DOT>.1131E-4</MEAN_MOTION_DOT><MEAN_MOTION_DDOT>0</MEAN_MOTION_DDOT></tleParameters></data></segment></body></omm>
<omm id="CCSDS_OMM_VERS" version="2.0">
<header><CREATION_DATE/><ORIGINATOR/></header><body><segment><metadata><OBJECT_NAME>DUMMY MASS 2 [-]</OBJECT_NAME><OBJECT_ID>1997-048B</OBJECT_ID><CENTER_NAME>EARTH</CENTER_NAME><REF_FRAME>TEME</REF_FRAME><TIME_SYSTEM>UTC</TIME_SYSTEM><MEAN_ELEMENT_THEORY>SGP4</MEAN_ELEMENT_THEORY></metadata><data><meanElements><EPOCH>2024-02-14T09:13:51.328704</EPOCH><MEAN_MOTION>14.85807451</MEAN_MOTION><ECCENTRICITY>.0010091</ECCENTRICITY><INCLINATION>86.3381</INCLINATION><RA_OF_ASC_NODE>2.6924</RA_OF_ASC_NODE><ARG_OF_PERICENTER>89.5013</ARG_OF_PERICENTER><MEAN_ANOMALY>270.7368</MEAN_ANOMALY></meanElements><tleParameters><EPHEMERIS_TYPE>0</EPHEMERIS_TYPE><CLASSIFICATION_TYPE>U</CLASSIFICATION_TYPE><NORAD_CAT_ID>24926</NORAD_CAT_ID><ELEMENT_SET_NO>999</ELEMENT_SET_NO><REV_AT_EPOCH>43254</REV_AT_EPOCH><BSTAR>.12387E-3</BSTAR><MEAN_MOTION_DOT>.1105E-4</MEAN_MOTION_DOT><MEAN_MOTION_DDOT>0</MEAN_MOTION_DDOT></tleParameters></data></segment></body></omm>
<omm id="CCSDS_OMM_VERS" version="2.0">
<header><CREATION_DATE/><ORIGINATOR/></header><body><segment><metadata><OBJECT_NAME>IRIDIUM 29 [-]</OBJECT_NAME><OBJECT_ID>1997-051A</OBJECT_ID><CENTER_NAME>EARTH</CENTER_NAME><REF_FRAME>TEME</REF_FRAME><TIME_SYSTEM>UTC</TIME_SYSTEM><MEAN_ELEMENT_THEORY>SGP4</MEAN_ELEMENT_THEORY></metadata><data><meanElements><EPOCH>2024-02-14T09:24:56.549952</EPOCH><MEAN_MOTION>14.35557356</MEAN_MOTION><ECCENTRICITY>.0002409</ECCENTRICITY><INCLINATION>86.4005</INCLINATION><RA_OF_ASC_NODE>348.7930</RA_OF_ASC_NODE><ARG_OF_PERICENTER>82.0300</ARG_OF_PERICENTER><MEAN_ANOMALY>278.1170</MEAN_ANOMALY></meanElements><tleParameters><EPHEMERIS_TYPE>0</EPHEMERIS_TYPE><CLASSIFICATION_TYPE>U</CLASSIFICATION_TYPE><NORAD_CAT_ID>24944</NORAD_CAT_ID><ELEMENT_SET_NO>999</ELEMENT_SET_NO><REV_AT_EPOCH>38334</REV_AT_EPOCH><BSTAR>.33183E-3</BSTAR><MEAN_MOTION_DOT>.974E-5</MEAN_MOTION_DOT><MEAN_MOTION_DDOT>0</MEAN_MOTION_DDOT></tleParameters></data></segment></body></omm>
<omm id="CCSDS_OMM_VERS" version="2.0">
<header><CREATION_DATE/><ORIGINATOR/></header><body><segment><metadata><OBJECT_NAME>IRIDIUM 33 [-]</OBJECT_NAME><OBJECT_ID>1997-051C</OBJECT_ID><CENTER_NAME>EARTH</CENTER_NAME><REF_FRAME>TEME</REF_FRAME><TIME_SYSTEM>UTC</TIME_SYSTEM><MEAN_ELEMENT_THEORY>SGP4</MEAN_ELEMENT_THEORY></metadata><data><meanElements><EPOCH>2024-02-13T21:16:19.130592</EPOCH><MEAN_MOTION>14.34259093</MEAN_MOTION><ECCENTRICITY>.0006146</ECCENTRICITY><INCLINATION>86.3919</INCLINATION><RA_OF_ASC_NODE>348.2670</RA_OF_ASC_NODE><ARG_OF_PERICENTER>224.7106</ARG_OF_PERICENTER><MEAN_ANOMALY>135.3595</MEAN_ANOMALY></meanElements><tleParameters><EPHEMERIS_TYPE>0</EPHEMERIS_TYPE><CLASSIFICATION_TYPE>U</CLASSIFICATION_TYPE><NORAD_CAT_ID>24946</NORAD_CAT_ID><ELEMENT_SET_NO>999</ELEMENT_SET_NO><REV_AT_EPOCH>38259</REV_AT_EPOCH><BSTAR>.27215E-3</BSTAR><MEAN_MOTION_DOT>.783E-5</MEAN_MOTION_DOT><MEAN_MOTION_DDOT>0</MEAN_MOTION_DDOT></tleParameters></data></segment></body></omm>
<omm id="CCSDS_OMM_VERS" version="2.0">
<header><CREATION_DATE/><ORIGINATOR/></header><body><segment><metadata><OBJECT_NAME>IRIDIUM 28 [-]</OBJECT_NAME><OBJECT_ID>1997-051E</OBJECT_ID><CENTER_NAME>EARTH</CENTER_NAME><REF_FRAME>TEME</REF_FRAME><TIME_SYSTEM>UTC</TIME_SYSTEM><MEAN_ELEMENT_THEORY>SGP4</MEAN_ELEMENT_THEORY></metadata><data><meanElements><EPOCH>2024-02-13T22:05:55.207104</EPOCH><MEAN_MOTION>14.36505126</MEAN_MOTION><ECCENTRICITY>.0001777</ECCENTRICITY><INCLINATION>86.4010</INCLINATION><RA_OF_ASC_NODE>346.7884</RA_OF_ASC_NODE><ARG_OF_PERICENTER>89.3842</ARG_OF_PERICENTER><MEAN_ANOMALY>270.7559</MEAN_ANOMALY></meanElements><tleParameters><EPHEMERIS_TYPE>0</EPHEMERIS_TYPE><CLASSIFICATION_TYPE>U</CLASSIFICATION_TYPE><NORAD_CAT_ID>24948</NORAD_CAT_ID><ELEMENT_SET_NO>999</ELEMENT_SET_NO><REV_AT_EPOCH>38358</REV_AT_EPOCH><BSTAR>.37628E-3</BSTAR><MEAN_MOTION_DOT>.1123E-4</MEAN_MOTION_DOT><MEAN_MOTION_DDOT>0</MEAN_MOTION_DDOT></tleParameters></data></segment></body></omm>

</ndm>
